[{"OBJECT_NAME":"QPS-SAR-9 (SUSANOO-I)","OBJECT_ID":"2025-050A","EPOCH":"2026-03-09T22:44:21.680160","MEAN_MOTION":15.02099025,"ECCENTRICITY":0.00041027,"INCLINATION":42.0195,"RA_OF_ASC_NODE":290.2117,"ARG_OF_PERICENTER":235.6113,"MEAN_ANOMALY":124.4326,"EPHEMERIS_TYPE":0,"CLASSIFICATION_TYPE":"U","NORAD_CAT_ID":63205,"ELEMENT_SET_NO":999,"REV_AT_EPOCH":5403,"BSTAR":0.00053180523,"MEAN_MOTION_DOT":6.925e-5,"MEAN_MOTION_DDOT":0},{"OBJECT_NAME":"STARLINK-35177","OBJECT_ID":"2025-211X","EPOCH":"2026-03-09T15:56:19.993056","MEAN_MOTION":15.05649843,"ECCENTRICITY":0.00016962,"INCLINATION":97.6037,"RA_OF_ASC_NODE":114.1278,"ARG_OF_PERICENTER":107.8979,"MEAN_ANOMALY":252.2432,"EPHEMERIS_TYPE":0,"CLASSIFICATION_TYPE":"U","NORAD_CAT_ID":65673,"ELEMENT_SET_NO":999,"REV_AT_EPOCH":2704,"BSTAR":0.00045786336,"MEAN_MOTION_DOT":6.552e-5,"MEAN_MOTION_DDOT":0}]
